{
 "type": "Feature",
 "properties": {
  "note": "An even circular loop of about 2.5 km.",
  "summary": {
   "distance": 2512.3,
   "duration": 1808.8
  },
  "segments": [
   {
    "distance": 628.1
   },
   {
    "distance": 628.1
   },
   {
    "distance": 628.1
   },
   {
    "distance": 628.1
   }
  ],
  "maneuvers": [
   11,
   1,
   1,
   10
  ]
 },
 "geometry": {
  "type": "LineString",
  "coordinates": [
   [
    -4.4816,
    54.1506
   ],
   [
    -4.4813993,
    54.1505942
   ],
   [
    -4.4811986,
    54.1505885
   ],
   [
    -4.4809979,
    54.1505827
   ],
   [
    -4.4807992,
    54.1505654
   ],
   [
    -4.4806004,
    54.1505481
   ],
   [
    -4.4804017,
    54.1505309
   ],
   [
    -4.4802068,
    54.1505023
   ],
   [
    -4.4800119,
    54.1504737
   ],
   [
    -4.479817,
    54.1504451
   ],
   [
    -4.4796278,
    54.1504055
   ],
   [
    -4.4794386,
    54.1503658
   ],
   [
    -4.4792495,
    54.1503262
   ],
   [
    -4.4790678,
    54.1502759
   ],
   [
    -4.4788862,
    54.1502255
   ],
   [
    -4.4787046,
    54.1501752
   ],
   [
    -4.4785322,
    54.1501147
   ],
   [
    -4.4783599,
    54.1500542
   ],
   [
    -4.4781876,
    54.1499937
   ],
   [
    -4.4780262,
    54.1499235
   ],
   [
    -4.4778648,
    54.1498535
   ],
   [
    -4.4777034,
    54.1497834
   ],
   [
    -4.4775546,
    54.1497043
   ],
   [
    -4.4774057,
    54.1496253
   ],
   [
    -4.4772568,
    54.1495463
   ],
   [
    -4.4771219,
    54.1494591
   ],
   [
    -4.476987,
    54.1493719
   ],
   [
    -4.4768521,
    54.1492847
   ],
   [
    -4.4767324,
    54.1491902
   ],
   [
    -4.4766127,
    54.1490957
   ],
   [
    -4.4764931,
    54.1490012
   ],
   [
    -4.4763898,
    54.1489002
   ],
   [
    -4.4762865,
    54.1487993
   ],
   [
    -4.4761832,
    54.1486984
   ],
   [
    -4.4760973,
    54.148592
   ],
   [
    -4.4760114,
    54.1484856
   ],
   [
    -4.4759255,
    54.1483792
   ],
   [
    -4.4758579,
    54.1482684
   ],
   [
    -4.4757902,
    54.1481576
   ],
   [
    -4.4757225,
    54.1480469
   ],
   [
    -4.4756737,
    54.1479327
   ],
   [
    -4.4756249,
    54.1478186
   ],
   [
    -4.4755761,
    54.1477043
   ],
   [
    -4.4755467,
    54.1475879
   ],
   [
    -4.4755172,
    54.1474715
   ],
   [
    -4.4754877,
    54.1473551
   ],
   [
    -4.4754779,
    54.1472376
   ],
   [
    -4.4754681,
    54.14712
   ],
   [
    -4.4754582,
    54.1470025
   ],
   [
    -4.4754681,
    54.146885
   ],
   [
    -4.475478,
    54.1467674
   ],
   [
    -4.4754878,
    54.1466499
   ],
   [
    -4.4755173,
    54.1465335
   ],
   [
    -4.4755468,
    54.1464171
   ],
   [
    -4.4755763,
    54.1463007
   ],
   [
    -4.4756252,
    54.1461867
   ],
   [
    -4.475674,
    54.1460725
   ],
   [
    -4.4757228,
    54.1459584
   ],
   [
    -4.4757905,
    54.1458476
   ],
   [
    -4.4758582,
    54.1457368
   ],
   [
    -4.4759259,
    54.145626
   ],
   [
    -4.4760118,
    54.1455196
   ],
   [
    -4.4760977,
    54.1454132
   ],
   [
    -4.4761837,
    54.1453069
   ],
   [
    -4.476287,
    54.1452059
   ],
   [
    -4.4763902,
    54.145105
   ],
   [
    -4.4764935,
    54.1450041
   ],
   [
    -4.4766132,
    54.1449096
   ],
   [
    -4.4767329,
    54.144815
   ],
   [
    -4.4768526,
    54.1447205
   ],
   [
    -4.4769875,
    54.1446333
   ],
   [
    -4.4771225,
    54.1445461
   ],
   [
    -4.4772574,
    54.1444589
   ],
   [
    -4.4774062,
    54.1443799
   ],
   [
    -4.4775551,
    54.1443009
   ],
   [
    -4.477704,
    54.1442219
   ],
   [
    -4.4778653,
    54.1441518
   ],
   [
    -4.4780267,
    54.1440817
   ],
   [
    -4.4781881,
    54.1440117
   ],
   [
    -4.4783604,
    54.1439512
   ],
   [
    -4.4785327,
    54.1438907
   ],
   [
    -4.478705,
    54.1438302
   ],
   [
    -4.4788866,
    54.1437799
   ],
   [
    -4.4790682,
    54.1437296
   ],
   [
    -4.4792498,
    54.1436793
   ],
   [
    -4.479439,
    54.1436396
   ],
   [
    -4.4796281,
    54.1436
   ],
   [
    -4.4798173,
    54.1435603
   ],
   [
    -4.4800122,
    54.1435317
   ],
   [
    -4.480207,
    54.1435031
   ],
   [
    -4.4804019,
    54.1434745
   ],
   [
    -4.4806006,
    54.1434573
   ],
   [
    -4.4807993,
    54.14344
   ],
   [
    -4.4809981,
    54.1434227
   ],
   [
    -4.4811987,
    54.143417
   ],
   [
    -4.4813994,
    54.1434112
   ],
   [
    -4.4816,
    54.1434054
   ],
   [
    -4.4818006,
    54.1434112
   ],
   [
    -4.4820013,
    54.143417
   ],
   [
    -4.4822019,
    54.1434227
   ],
   [
    -4.4824007,
    54.14344
   ],
   [
    -4.4825994,
    54.1434573
   ],
   [
    -4.4827981,
    54.1434745
   ],
   [
    -4.482993,
    54.1435031
   ],
   [
    -4.4831878,
    54.1435317
   ],
   [
    -4.4833827,
    54.1435603
   ],
   [
    -4.4835719,
    54.1436
   ],
   [
    -4.483761,
    54.1436396
   ],
   [
    -4.4839502,
    54.1436793
   ],
   [
    -4.4841318,
    54.1437296
   ],
   [
    -4.4843134,
    54.1437799
   ],
   [
    -4.484495,
    54.1438302
   ],
   [
    -4.4846673,
    54.1438907
   ],
   [
    -4.4848396,
    54.1439512
   ],
   [
    -4.4850119,
    54.1440117
   ],
   [
    -4.4851733,
    54.1440817
   ],
   [
    -4.4853347,
    54.1441518
   ],
   [
    -4.485496,
    54.1442219
   ],
   [
    -4.4856449,
    54.1443009
   ],
   [
    -4.4857938,
    54.1443799
   ],
   [
    -4.4859426,
    54.1444589
   ],
   [
    -4.4860775,
    54.1445461
   ],
   [
    -4.4862125,
    54.1446333
   ],
   [
    -4.4863474,
    54.1447205
   ],
   [
    -4.4864671,
    54.144815
   ],
   [
    -4.4865868,
    54.1449096
   ],
   [
    -4.4867065,
    54.1450041
   ],
   [
    -4.4868098,
    54.145105
   ],
   [
    -4.486913,
    54.1452059
   ],
   [
    -4.4870163,
    54.1453069
   ],
   [
    -4.4871023,
    54.1454132
   ],
   [
    -4.4871882,
    54.1455196
   ],
   [
    -4.4872741,
    54.145626
   ],
   [
    -4.4873418,
    54.1457368
   ],
   [
    -4.4874095,
    54.1458476
   ],
   [
    -4.4874772,
    54.1459584
   ],
   [
    -4.487526,
    54.1460725
   ],
   [
    -4.4875748,
    54.1461867
   ],
   [
    -4.4876237,
    54.1463007
   ],
   [
    -4.4876532,
    54.1464171
   ],
   [
    -4.4876827,
    54.1465335
   ],
   [
    -4.4877122,
    54.1466499
   ],
   [
    -4.487722,
    54.1467674
   ],
   [
    -4.4877319,
    54.146885
   ],
   [
    -4.4877418,
    54.1470025
   ],
   [
    -4.4877319,
    54.14712
   ],
   [
    -4.4877221,
    54.1472376
   ],
   [
    -4.4877123,
    54.1473551
   ],
   [
    -4.4876828,
    54.1474715
   ],
   [
    -4.4876533,
    54.1475879
   ],
   [
    -4.4876239,
    54.1477043
   ],
   [
    -4.4875751,
    54.1478186
   ],
   [
    -4.4875263,
    54.1479327
   ],
   [
    -4.4874775,
    54.1480469
   ],
   [
    -4.4874098,
    54.1481576
   ],
   [
    -4.4873421,
    54.1482684
   ],
   [
    -4.4872745,
    54.1483792
   ],
   [
    -4.4871886,
    54.1484856
   ],
   [
    -4.4871027,
    54.148592
   ],
   [
    -4.4870168,
    54.1486984
   ],
   [
    -4.4869135,
    54.1487993
   ],
   [
    -4.4868102,
    54.1489002
   ],
   [
    -4.4867069,
    54.1490012
   ],
   [
    -4.4865873,
    54.1490957
   ],
   [
    -4.4864676,
    54.1491902
   ],
   [
    -4.4863479,
    54.1492847
   ],
   [
    -4.486213,
    54.1493719
   ],
   [
    -4.4860781,
    54.1494591
   ],
   [
    -4.4859432,
    54.1495463
   ],
   [
    -4.4857943,
    54.1496253
   ],
   [
    -4.4856454,
    54.1497043
   ],
   [
    -4.4854966,
    54.1497834
   ],
   [
    -4.4853352,
    54.1498535
   ],
   [
    -4.4851738,
    54.1499235
   ],
   [
    -4.4850124,
    54.1499937
   ],
   [
    -4.4848401,
    54.1500542
   ],
   [
    -4.4846678,
    54.1501147
   ],
   [
    -4.4844954,
    54.1501752
   ],
   [
    -4.4843138,
    54.1502255
   ],
   [
    -4.4841322,
    54.1502759
   ],
   [
    -4.4839505,
    54.1503262
   ],
   [
    -4.4837614,
    54.1503658
   ],
   [
    -4.4835722,
    54.1504055
   ],
   [
    -4.483383,
    54.1504451
   ],
   [
    -4.4831881,
    54.1504737
   ],
   [
    -4.4829932,
    54.1505023
   ],
   [
    -4.4827983,
    54.1505309
   ],
   [
    -4.4825996,
    54.1505481
   ],
   [
    -4.4824008,
    54.1505654
   ],
   [
    -4.4822021,
    54.1505827
   ],
   [
    -4.4820014,
    54.1505885
   ],
   [
    -4.4818007,
    54.1505942
   ],
   [
    -4.4816,
    54.1506
   ]
  ]
 }
}