{
 "type": "Feature",
 "properties": {
  "note": "A 1.5 km long, 120 m wide sliver: technically a loop, visually a line.",
  "summary": {
   "distance": 3240.0,
   "duration": 2332.8
  },
  "segments": [
   {
    "distance": 1458.0
   },
   {
    "distance": 162.0
   },
   {
    "distance": 1458.0
   },
   {
    "distance": 162.0
   }
  ],
  "maneuvers": [
   11,
   1,
   1,
   10
  ]
 },
 "geometry": {
  "type": "LineString",
  "coordinates": [
   [
    -4.4825213,
    54.1506
   ],
   [
    -4.4825213,
    54.1507079
   ],
   [
    -4.4825214,
    54.1508158
   ],
   [
    -4.4825214,
    54.1509238
   ],
   [
    -4.4825214,
    54.1510317
   ],
   [
    -4.4825214,
    54.1511396
   ],
   [
    -4.4825214,
    54.1512475
   ],
   [
    -4.4825214,
    54.1513554
   ],
   [
    -4.4825214,
    54.1514633
   ],
   [
    -4.4825214,
    54.1515713
   ],
   [
    -4.4825214,
    54.1516792
   ],
   [
    -4.4825214,
    54.1517871
   ],
   [
    -4.4825214,
    54.151895
   ],
   [
    -4.4825214,
    54.1520029
   ],
   [
    -4.4825214,
    54.1521109
   ],
   [
    -4.4825214,
    54.1522188
   ],
   [
    -4.4825214,
    54.1523267
   ],
   [
    -4.4825214,
    54.1524346
   ],
   [
    -4.4825214,
    54.1525425
   ],
   [
    -4.4825214,
    54.1526505
   ],
   [
    -4.4825214,
    54.1527584
   ],
   [
    -4.4825214,
    54.1528663
   ],
   [
    -4.4825214,
    54.1529742
   ],
   [
    -4.4825214,
    54.1530821
   ],
   [
    -4.4825214,
    54.15319
   ],
   [
    -4.4825214,
    54.153298
   ],
   [
    -4.4825214,
    54.1534059
   ],
   [
    -4.4825214,
    54.1535138
   ],
   [
    -4.4825214,
    54.1536217
   ],
   [
    -4.4825214,
    54.1537296
   ],
   [
    -4.4825214,
    54.1538376
   ],
   [
    -4.4825214,
    54.1539455
   ],
   [
    -4.4825214,
    54.1540534
   ],
   [
    -4.4825214,
    54.1541613
   ],
   [
    -4.4825214,
    54.1542692
   ],
   [
    -4.4825214,
    54.1543772
   ],
   [
    -4.4825214,
    54.1544851
   ],
   [
    -4.4825214,
    54.154593
   ],
   [
    -4.4825214,
    54.1547009
   ],
   [
    -4.4825214,
    54.1548088
   ],
   [
    -4.4825214,
    54.1549167
   ],
   [
    -4.4825214,
    54.1550247
   ],
   [
    -4.4825214,
    54.1551326
   ],
   [
    -4.4825215,
    54.1552405
   ],
   [
    -4.4825215,
    54.1553484
   ],
   [
    -4.4825215,
    54.1554563
   ],
   [
    -4.4825215,
    54.1555643
   ],
   [
    -4.4825215,
    54.1556722
   ],
   [
    -4.4825215,
    54.1557801
   ],
   [
    -4.4825215,
    54.155888
   ],
   [
    -4.4825215,
    54.1559959
   ],
   [
    -4.4825215,
    54.1561038
   ],
   [
    -4.4825215,
    54.1562118
   ],
   [
    -4.4825215,
    54.1563197
   ],
   [
    -4.4825215,
    54.1564276
   ],
   [
    -4.4825215,
    54.1565355
   ],
   [
    -4.4825215,
    54.1566434
   ],
   [
    -4.4825215,
    54.1567514
   ],
   [
    -4.4825215,
    54.1568593
   ],
   [
    -4.4825215,
    54.1569672
   ],
   [
    -4.4825215,
    54.1570751
   ],
   [
    -4.4825215,
    54.157183
   ],
   [
    -4.4825215,
    54.157291
   ],
   [
    -4.4825215,
    54.1573989
   ],
   [
    -4.4825215,
    54.1575068
   ],
   [
    -4.4825215,
    54.1576147
   ],
   [
    -4.4825215,
    54.1577226
   ],
   [
    -4.4825215,
    54.1578305
   ],
   [
    -4.4825215,
    54.1579385
   ],
   [
    -4.4825215,
    54.1580464
   ],
   [
    -4.4825215,
    54.1581543
   ],
   [
    -4.4825215,
    54.1582622
   ],
   [
    -4.4825215,
    54.1583701
   ],
   [
    -4.4825215,
    54.1584781
   ],
   [
    -4.4825215,
    54.158586
   ],
   [
    -4.4825215,
    54.1586939
   ],
   [
    -4.4825215,
    54.1588018
   ],
   [
    -4.4825215,
    54.1589097
   ],
   [
    -4.4825215,
    54.1590177
   ],
   [
    -4.4825215,
    54.1591256
   ],
   [
    -4.4825215,
    54.1592335
   ],
   [
    -4.4825215,
    54.1593414
   ],
   [
    -4.4825215,
    54.1594493
   ],
   [
    -4.4825215,
    54.1595572
   ],
   [
    -4.4825215,
    54.1596652
   ],
   [
    -4.4825216,
    54.1597731
   ],
   [
    -4.4825216,
    54.159881
   ],
   [
    -4.4825216,
    54.1599889
   ],
   [
    -4.4825216,
    54.1600968
   ],
   [
    -4.4825216,
    54.1602048
   ],
   [
    -4.4825216,
    54.1603127
   ],
   [
    -4.4825216,
    54.1604206
   ],
   [
    -4.4825216,
    54.1605285
   ],
   [
    -4.4825216,
    54.1606364
   ],
   [
    -4.4825216,
    54.1607443
   ],
   [
    -4.4825216,
    54.1608523
   ],
   [
    -4.4825216,
    54.1609602
   ],
   [
    -4.4825216,
    54.1610681
   ],
   [
    -4.4825216,
    54.161176
   ],
   [
    -4.4825216,
    54.1612839
   ],
   [
    -4.4825216,
    54.1613919
   ],
   [
    -4.4825216,
    54.1614998
   ],
   [
    -4.4825216,
    54.1616077
   ],
   [
    -4.4825216,
    54.1617156
   ],
   [
    -4.4825216,
    54.1618235
   ],
   [
    -4.4825216,
    54.1619315
   ],
   [
    -4.4825216,
    54.1620394
   ],
   [
    -4.4825216,
    54.1621473
   ],
   [
    -4.4825216,
    54.1622552
   ],
   [
    -4.4825216,
    54.1623631
   ],
   [
    -4.4825216,
    54.162471
   ],
   [
    -4.4825216,
    54.162579
   ],
   [
    -4.4825216,
    54.1626869
   ],
   [
    -4.4825216,
    54.1627948
   ],
   [
    -4.4825216,
    54.1629027
   ],
   [
    -4.4825216,
    54.1630106
   ],
   [
    -4.4825216,
    54.1631186
   ],
   [
    -4.4825216,
    54.1632265
   ],
   [
    -4.4825216,
    54.1633344
   ],
   [
    -4.4825216,
    54.1634423
   ],
   [
    -4.4825216,
    54.1635502
   ],
   [
    -4.4825216,
    54.1636581
   ],
   [
    -4.4825216,
    54.1637661
   ],
   [
    -4.4825216,
    54.163874
   ],
   [
    -4.4825216,
    54.1639819
   ],
   [
    -4.4825216,
    54.1640898
   ],
   [
    -4.4823373,
    54.1640898
   ],
   [
    -4.482153,
    54.1640898
   ],
   [
    -4.4819687,
    54.1640898
   ],
   [
    -4.4817843,
    54.1640898
   ],
   [
    -4.4816,
    54.1640898
   ],
   [
    -4.4814157,
    54.1640898
   ],
   [
    -4.4812313,
    54.1640898
   ],
   [
    -4.481047,
    54.1640898
   ],
   [
    -4.4808627,
    54.1640898
   ],
   [
    -4.4806784,
    54.1640898
   ],
   [
    -4.4806784,
    54.1639819
   ],
   [
    -4.4806784,
    54.163874
   ],
   [
    -4.4806784,
    54.1637661
   ],
   [
    -4.4806784,
    54.1636581
   ],
   [
    -4.4806784,
    54.1635502
   ],
   [
    -4.4806784,
    54.1634423
   ],
   [
    -4.4806784,
    54.1633344
   ],
   [
    -4.4806784,
    54.1632265
   ],
   [
    -4.4806784,
    54.1631186
   ],
   [
    -4.4806784,
    54.1630106
   ],
   [
    -4.4806784,
    54.1629027
   ],
   [
    -4.4806784,
    54.1627948
   ],
   [
    -4.4806784,
    54.1626869
   ],
   [
    -4.4806784,
    54.162579
   ],
   [
    -4.4806784,
    54.162471
   ],
   [
    -4.4806784,
    54.1623631
   ],
   [
    -4.4806784,
    54.1622552
   ],
   [
    -4.4806784,
    54.1621473
   ],
   [
    -4.4806784,
    54.1620394
   ],
   [
    -4.4806784,
    54.1619315
   ],
   [
    -4.4806784,
    54.1618235
   ],
   [
    -4.4806784,
    54.1617156
   ],
   [
    -4.4806784,
    54.1616077
   ],
   [
    -4.4806784,
    54.1614998
   ],
   [
    -4.4806784,
    54.1613919
   ],
   [
    -4.4806784,
    54.1612839
   ],
   [
    -4.4806784,
    54.161176
   ],
   [
    -4.4806784,
    54.1610681
   ],
   [
    -4.4806784,
    54.1609602
   ],
   [
    -4.4806784,
    54.1608523
   ],
   [
    -4.4806784,
    54.1607443
   ],
   [
    -4.4806784,
    54.1606364
   ],
   [
    -4.4806784,
    54.1605285
   ],
   [
    -4.4806784,
    54.1604206
   ],
   [
    -4.4806784,
    54.1603127
   ],
   [
    -4.4806784,
    54.1602048
   ],
   [
    -4.4806784,
    54.1600968
   ],
   [
    -4.4806784,
    54.1599889
   ],
   [
    -4.4806784,
    54.159881
   ],
   [
    -4.4806784,
    54.1597731
   ],
   [
    -4.4806785,
    54.1596652
   ],
   [
    -4.4806785,
    54.1595572
   ],
   [
    -4.4806785,
    54.1594493
   ],
   [
    -4.4806785,
    54.1593414
   ],
   [
    -4.4806785,
    54.1592335
   ],
   [
    -4.4806785,
    54.1591256
   ],
   [
    -4.4806785,
    54.1590177
   ],
   [
    -4.4806785,
    54.1589097
   ],
   [
    -4.4806785,
    54.1588018
   ],
   [
    -4.4806785,
    54.1586939
   ],
   [
    -4.4806785,
    54.158586
   ],
   [
    -4.4806785,
    54.1584781
   ],
   [
    -4.4806785,
    54.1583701
   ],
   [
    -4.4806785,
    54.1582622
   ],
   [
    -4.4806785,
    54.1581543
   ],
   [
    -4.4806785,
    54.1580464
   ],
   [
    -4.4806785,
    54.1579385
   ],
   [
    -4.4806785,
    54.1578305
   ],
   [
    -4.4806785,
    54.1577226
   ],
   [
    -4.4806785,
    54.1576147
   ],
   [
    -4.4806785,
    54.1575068
   ],
   [
    -4.4806785,
    54.1573989
   ],
   [
    -4.4806785,
    54.157291
   ],
   [
    -4.4806785,
    54.157183
   ],
   [
    -4.4806785,
    54.1570751
   ],
   [
    -4.4806785,
    54.1569672
   ],
   [
    -4.4806785,
    54.1568593
   ],
   [
    -4.4806785,
    54.1567514
   ],
   [
    -4.4806785,
    54.1566434
   ],
   [
    -4.4806785,
    54.1565355
   ],
   [
    -4.4806785,
    54.1564276
   ],
   [
    -4.4806785,
    54.1563197
   ],
   [
    -4.4806785,
    54.1562118
   ],
   [
    -4.4806785,
    54.1561038
   ],
   [
    -4.4806785,
    54.1559959
   ],
   [
    -4.4806785,
    54.155888
   ],
   [
    -4.4806785,
    54.1557801
   ],
   [
    -4.4806785,
    54.1556722
   ],
   [
    -4.4806785,
    54.1555643
   ],
   [
    -4.4806785,
    54.1554563
   ],
   [
    -4.4806785,
    54.1553484
   ],
   [
    -4.4806785,
    54.1552405
   ],
   [
    -4.4806786,
    54.1551326
   ],
   [
    -4.4806786,
    54.1550247
   ],
   [
    -4.4806786,
    54.1549167
   ],
   [
    -4.4806786,
    54.1548088
   ],
   [
    -4.4806786,
    54.1547009
   ],
   [
    -4.4806786,
    54.154593
   ],
   [
    -4.4806786,
    54.1544851
   ],
   [
    -4.4806786,
    54.1543772
   ],
   [
    -4.4806786,
    54.1542692
   ],
   [
    -4.4806786,
    54.1541613
   ],
   [
    -4.4806786,
    54.1540534
   ],
   [
    -4.4806786,
    54.1539455
   ],
   [
    -4.4806786,
    54.1538376
   ],
   [
    -4.4806786,
    54.1537296
   ],
   [
    -4.4806786,
    54.1536217
   ],
   [
    -4.4806786,
    54.1535138
   ],
   [
    -4.4806786,
    54.1534059
   ],
   [
    -4.4806786,
    54.153298
   ],
   [
    -4.4806786,
    54.15319
   ],
   [
    -4.4806786,
    54.1530821
   ],
   [
    -4.4806786,
    54.1529742
   ],
   [
    -4.4806786,
    54.1528663
   ],
   [
    -4.4806786,
    54.1527584
   ],
   [
    -4.4806786,
    54.1526505
   ],
   [
    -4.4806786,
    54.1525425
   ],
   [
    -4.4806786,
    54.1524346
   ],
   [
    -4.4806786,
    54.1523267
   ],
   [
    -4.4806786,
    54.1522188
   ],
   [
    -4.4806786,
    54.1521109
   ],
   [
    -4.4806786,
    54.1520029
   ],
   [
    -4.4806786,
    54.151895
   ],
   [
    -4.4806786,
    54.1517871
   ],
   [
    -4.4806786,
    54.1516792
   ],
   [
    -4.4806786,
    54.1515713
   ],
   [
    -4.4806786,
    54.1514633
   ],
   [
    -4.4806786,
    54.1513554
   ],
   [
    -4.4806786,
    54.1512475
   ],
   [
    -4.4806786,
    54.1511396
   ],
   [
    -4.4806786,
    54.1510317
   ],
   [
    -4.4806786,
    54.1509238
   ],
   [
    -4.4806786,
    54.1508158
   ],
   [
    -4.4806787,
    54.1507079
   ],
   [
    -4.4806787,
    54.1506
   ],
   [
    -4.4808629,
    54.1506
   ],
   [
    -4.4810472,
    54.1506
   ],
   [
    -4.4812315,
    54.1506
   ],
   [
    -4.4814157,
    54.1506
   ],
   [
    -4.4816,
    54.1506
   ],
   [
    -4.4817843,
    54.1506
   ],
   [
    -4.4819685,
    54.1506
   ],
   [
    -4.4821528,
    54.1506
   ],
   [
    -4.4823371,
    54.1506
   ],
   [
    -4.4825213,
    54.1506
   ]
  ]
 }
}