{
 "type": "Feature",
 "properties": {
  "note": "Straight out 1.2 km and straight back.",
  "summary": {
   "distance": 2400.0,
   "duration": 1728.0
  },
  "segments": [
   {
    "distance": 1200.0
   },
   {
    "distance": 0.0
   },
   {
    "distance": 0.0
   },
   {
    "distance": 1200.0
   }
  ],
  "maneuvers": [
   11,
   9,
   10
  ]
 },
 "geometry": {
  "type": "LineString",
  "coordinates": [
   [
    -4.4816,
    54.1506
   ],
   [
    -4.4816,
    54.1507799
   ],
   [
    -4.4816,
    54.1509597
   ],
   [
    -4.4816,
    54.1511396
   ],
   [
    -4.4816,
    54.1513195
   ],
   [
    -4.4816,
    54.1514993
   ],
   [
    -4.4816,
    54.1516792
   ],
   [
    -4.4816,
    54.1518591
   ],
   [
    -4.4816,
    54.1520389
   ],
   [
    -4.4816,
    54.1522188
   ],
   [
    -4.4816,
    54.1523986
   ],
   [
    -4.4816,
    54.1525785
   ],
   [
    -4.4816,
    54.1527584
   ],
   [
    -4.4816,
    54.1529382
   ],
   [
    -4.4816,
    54.1531181
   ],
   [
    -4.4816,
    54.153298
   ],
   [
    -4.4816,
    54.1534778
   ],
   [
    -4.4816,
    54.1536577
   ],
   [
    -4.4816,
    54.1538376
   ],
   [
    -4.4816,
    54.1540174
   ],
   [
    -4.4816,
    54.1541973
   ],
   [
    -4.4816,
    54.1543772
   ],
   [
    -4.4816,
    54.154557
   ],
   [
    -4.4816,
    54.1547369
   ],
   [
    -4.4816,
    54.1549167
   ],
   [
    -4.4816,
    54.1550966
   ],
   [
    -4.4816,
    54.1552765
   ],
   [
    -4.4816,
    54.1554563
   ],
   [
    -4.4816,
    54.1556362
   ],
   [
    -4.4816,
    54.1558161
   ],
   [
    -4.4816,
    54.1559959
   ],
   [
    -4.4816,
    54.1561758
   ],
   [
    -4.4816,
    54.1563557
   ],
   [
    -4.4816,
    54.1565355
   ],
   [
    -4.4816,
    54.1567154
   ],
   [
    -4.4816,
    54.1568953
   ],
   [
    -4.4816,
    54.1570751
   ],
   [
    -4.4816,
    54.157255
   ],
   [
    -4.4816,
    54.1574348
   ],
   [
    -4.4816,
    54.1576147
   ],
   [
    -4.4816,
    54.1577946
   ],
   [
    -4.4816,
    54.1579744
   ],
   [
    -4.4816,
    54.1581543
   ],
   [
    -4.4816,
    54.1583342
   ],
   [
    -4.4816,
    54.158514
   ],
   [
    -4.4816,
    54.1586939
   ],
   [
    -4.4816,
    54.1588738
   ],
   [
    -4.4816,
    54.1590536
   ],
   [
    -4.4816,
    54.1592335
   ],
   [
    -4.4816,
    54.1594134
   ],
   [
    -4.4816,
    54.1595932
   ],
   [
    -4.4816,
    54.1597731
   ],
   [
    -4.4816,
    54.1599529
   ],
   [
    -4.4816,
    54.1601328
   ],
   [
    -4.4816,
    54.1603127
   ],
   [
    -4.4816,
    54.1604925
   ],
   [
    -4.4816,
    54.1606724
   ],
   [
    -4.4816,
    54.1608523
   ],
   [
    -4.4816,
    54.1610321
   ],
   [
    -4.4816,
    54.161212
   ],
   [
    -4.4816,
    54.1613919
   ],
   [
    -4.4816,
    54.161212
   ],
   [
    -4.4816,
    54.1610321
   ],
   [
    -4.4816,
    54.1608523
   ],
   [
    -4.4816,
    54.1606724
   ],
   [
    -4.4816,
    54.1604925
   ],
   [
    -4.4816,
    54.1603127
   ],
   [
    -4.4816,
    54.1601328
   ],
   [
    -4.4816,
    54.1599529
   ],
   [
    -4.4816,
    54.1597731
   ],
   [
    -4.4816,
    54.1595932
   ],
   [
    -4.4816,
    54.1594134
   ],
   [
    -4.4816,
    54.1592335
   ],
   [
    -4.4816,
    54.1590536
   ],
   [
    -4.4816,
    54.1588738
   ],
   [
    -4.4816,
    54.1586939
   ],
   [
    -4.4816,
    54.158514
   ],
   [
    -4.4816,
    54.1583342
   ],
   [
    -4.4816,
    54.1581543
   ],
   [
    -4.4816,
    54.1579744
   ],
   [
    -4.4816,
    54.1577946
   ],
   [
    -4.4816,
    54.1576147
   ],
   [
    -4.4816,
    54.1574348
   ],
   [
    -4.4816,
    54.157255
   ],
   [
    -4.4816,
    54.1570751
   ],
   [
    -4.4816,
    54.1568953
   ],
   [
    -4.4816,
    54.1567154
   ],
   [
    -4.4816,
    54.1565355
   ],
   [
    -4.4816,
    54.1563557
   ],
   [
    -4.4816,
    54.1561758
   ],
   [
    -4.4816,
    54.1559959
   ],
   [
    -4.4816,
    54.1558161
   ],
   [
    -4.4816,
    54.1556362
   ],
   [
    -4.4816,
    54.1554563
   ],
   [
    -4.4816,
    54.1552765
   ],
   [
    -4.4816,
    54.1550966
   ],
   [
    -4.4816,
    54.1549167
   ],
   [
    -4.4816,
    54.1547369
   ],
   [
    -4.4816,
    54.154557
   ],
   [
    -4.4816,
    54.1543772
   ],
   [
    -4.4816,
    54.1541973
   ],
   [
    -4.4816,
    54.1540174
   ],
   [
    -4.4816,
    54.1538376
   ],
   [
    -4.4816,
    54.1536577
   ],
   [
    -4.4816,
    54.1534778
   ],
   [
    -4.4816,
    54.153298
   ],
   [
    -4.4816,
    54.1531181
   ],
   [
    -4.4816,
    54.1529382
   ],
   [
    -4.4816,
    54.1527584
   ],
   [
    -4.4816,
    54.1525785
   ],
   [
    -4.4816,
    54.1523986
   ],
   [
    -4.4816,
    54.1522188
   ],
   [
    -4.4816,
    54.1520389
   ],
   [
    -4.4816,
    54.1518591
   ],
   [
    -4.4816,
    54.1516792
   ],
   [
    -4.4816,
    54.1514993
   ],
   [
    -4.4816,
    54.1513195
   ],
   [
    -4.4816,
    54.1511396
   ],
   [
    -4.4816,
    54.1509597
   ],
   [
    -4.4816,
    54.1507799
   ],
   [
    -4.4816,
    54.1506
   ]
  ]
 }
}