{
 "type": "Feature",
 "properties": {
  "note": "A ring reached along a 600 m bridge approach walked in both directions.",
  "summary": {
   "distance": 3079.6,
   "duration": 2217.3
  },
  "segments": [
   {
    "distance": 615.9
   },
   {
    "distance": 923.9
   },
   {
    "distance": 923.9
   },
   {
    "distance": 615.9
   }
  ],
  "maneuvers": [
   11,
   1,
   1,
   10
  ]
 },
 "geometry": {
  "type": "LineString",
  "coordinates": [
   [
    -4.4816,
    54.1506
   ],
   [
    -4.4816,
    54.1507079
   ],
   [
    -4.4816,
    54.1508158
   ],
   [
    -4.4816,
    54.1509238
   ],
   [
    -4.4816,
    54.1510317
   ],
   [
    -4.4816,
    54.1511396
   ],
   [
    -4.4816,
    54.1512475
   ],
   [
    -4.4816,
    54.1513554
   ],
   [
    -4.4816,
    54.1514633
   ],
   [
    -4.4816,
    54.1515713
   ],
   [
    -4.4816,
    54.1516792
   ],
   [
    -4.4816,
    54.1517871
   ],
   [
    -4.4816,
    54.151895
   ],
   [
    -4.4816,
    54.1520029
   ],
   [
    -4.4816,
    54.1521109
   ],
   [
    -4.4816,
    54.1522188
   ],
   [
    -4.4816,
    54.1523267
   ],
   [
    -4.4816,
    54.1524346
   ],
   [
    -4.4816,
    54.1525425
   ],
   [
    -4.4816,
    54.1526505
   ],
   [
    -4.4816,
    54.1527584
   ],
   [
    -4.4816,
    54.1528663
   ],
   [
    -4.4816,
    54.1529742
   ],
   [
    -4.4816,
    54.1530821
   ],
   [
    -4.4816,
    54.15319
   ],
   [
    -4.4816,
    54.153298
   ],
   [
    -4.4816,
    54.1534059
   ],
   [
    -4.4816,
    54.1535138
   ],
   [
    -4.4816,
    54.1536217
   ],
   [
    -4.4816,
    54.1537296
   ],
   [
    -4.4816,
    54.1538376
   ],
   [
    -4.4816,
    54.1539455
   ],
   [
    -4.4816,
    54.1540534
   ],
   [
    -4.4816,
    54.1541613
   ],
   [
    -4.4816,
    54.1542692
   ],
   [
    -4.4816,
    54.1543772
   ],
   [
    -4.4816,
    54.1544851
   ],
   [
    -4.4816,
    54.154593
   ],
   [
    -4.4816,
    54.1547009
   ],
   [
    -4.4816,
    54.1548088
   ],
   [
    -4.4816,
    54.1549167
   ],
   [
    -4.4816,
    54.1550247
   ],
   [
    -4.4816,
    54.1551326
   ],
   [
    -4.4816,
    54.1552405
   ],
   [
    -4.4816,
    54.1553484
   ],
   [
    -4.4816,
    54.1554563
   ],
   [
    -4.4816,
    54.1555643
   ],
   [
    -4.4816,
    54.1556722
   ],
   [
    -4.4816,
    54.1557801
   ],
   [
    -4.4816,
    54.155888
   ],
   [
    -4.4816,
    54.1559959
   ],
   [
    -4.4814013,
    54.1560113
   ],
   [
    -4.4812025,
    54.1560266
   ],
   [
    -4.4810038,
    54.1560419
   ],
   [
    -4.480805,
    54.1560572
   ],
   [
    -4.4806063,
    54.1560725
   ],
   [
    -4.4804075,
    54.1560879
   ],
   [
    -4.4802223,
    54.1561328
   ],
   [
    -4.4800371,
    54.1561777
   ],
   [
    -4.4798519,
    54.1562226
   ],
   [
    -4.4796667,
    54.1562675
   ],
   [
    -4.4794815,
    54.1563125
   ],
   [
    -4.4792963,
    54.1563574
   ],
   [
    -4.4791373,
    54.1564288
   ],
   [
    -4.4789782,
    54.1565003
   ],
   [
    -4.4788192,
    54.1565718
   ],
   [
    -4.4786601,
    54.1566432
   ],
   [
    -4.4785011,
    54.1567147
   ],
   [
    -4.4783421,
    54.1567861
   ],
   [
    -4.47822,
    54.1568793
   ],
   [
    -4.478098,
    54.1569723
   ],
   [
    -4.4779759,
    54.1570654
   ],
   [
    -4.4778539,
    54.1571586
   ],
   [
    -4.4777318,
    54.1572517
   ],
   [
    -4.4776098,
    54.1573448
   ],
   [
    -4.4775331,
    54.1574533
   ],
   [
    -4.4774563,
    54.1575617
   ],
   [
    -4.4773796,
    54.1576702
   ],
   [
    -4.4773029,
    54.1577786
   ],
   [
    -4.4772262,
    54.1578871
   ],
   [
    -4.4771494,
    54.1579955
   ],
   [
    -4.4771233,
    54.1581119
   ],
   [
    -4.4770971,
    54.1582283
   ],
   [
    -4.4770709,
    54.1583447
   ],
   [
    -4.4770447,
    54.158461
   ],
   [
    -4.4770185,
    54.1585774
   ],
   [
    -4.4769924,
    54.1586938
   ],
   [
    -4.4770185,
    54.1588102
   ],
   [
    -4.4770447,
    54.1589266
   ],
   [
    -4.4770708,
    54.1590429
   ],
   [
    -4.477097,
    54.1591593
   ],
   [
    -4.4771231,
    54.1592757
   ],
   [
    -4.4771493,
    54.1593921
   ],
   [
    -4.477226,
    54.1595005
   ],
   [
    -4.4773027,
    54.159609
   ],
   [
    -4.4773794,
    54.1597174
   ],
   [
    -4.4774561,
    54.1598259
   ],
   [
    -4.4775328,
    54.1599343
   ],
   [
    -4.4776095,
    54.1600428
   ],
   [
    -4.4777316,
    54.1601359
   ],
   [
    -4.4778536,
    54.160229
   ],
   [
    -4.4779756,
    54.1603222
   ],
   [
    -4.4780977,
    54.1604153
   ],
   [
    -4.4782197,
    54.1605085
   ],
   [
    -4.4783418,
    54.1606016
   ],
   [
    -4.4785008,
    54.1606731
   ],
   [
    -4.4786599,
    54.1607446
   ],
   [
    -4.4788189,
    54.160816
   ],
   [
    -4.478978,
    54.1608875
   ],
   [
    -4.479137,
    54.1609589
   ],
   [
    -4.4792961,
    54.1610304
   ],
   [
    -4.4794813,
    54.1610753
   ],
   [
    -4.4796665,
    54.1611202
   ],
   [
    -4.4798517,
    54.1611652
   ],
   [
    -4.4800369,
    54.1612101
   ],
   [
    -4.4802222,
    54.161255
   ],
   [
    -4.4804074,
    54.1612999
   ],
   [
    -4.4806062,
    54.1613153
   ],
   [
    -4.4808049,
    54.1613306
   ],
   [
    -4.4810037,
    54.1613459
   ],
   [
    -4.4812025,
    54.1613612
   ],
   [
    -4.4814012,
    54.1613765
   ],
   [
    -4.4816,
    54.1613919
   ],
   [
    -4.4817988,
    54.1613765
   ],
   [
    -4.4819975,
    54.1613612
   ],
   [
    -4.4821963,
    54.1613459
   ],
   [
    -4.4823951,
    54.1613306
   ],
   [
    -4.4825938,
    54.1613153
   ],
   [
    -4.4827926,
    54.1612999
   ],
   [
    -4.4829778,
    54.161255
   ],
   [
    -4.4831631,
    54.1612101
   ],
   [
    -4.4833483,
    54.1611652
   ],
   [
    -4.4835335,
    54.1611202
   ],
   [
    -4.4837187,
    54.1610753
   ],
   [
    -4.4839039,
    54.1610304
   ],
   [
    -4.484063,
    54.1609589
   ],
   [
    -4.484222,
    54.1608875
   ],
   [
    -4.4843811,
    54.160816
   ],
   [
    -4.4845401,
    54.1607446
   ],
   [
    -4.4846992,
    54.1606731
   ],
   [
    -4.4848582,
    54.1606016
   ],
   [
    -4.4849803,
    54.1605085
   ],
   [
    -4.4851023,
    54.1604153
   ],
   [
    -4.4852244,
    54.1603222
   ],
   [
    -4.4853464,
    54.160229
   ],
   [
    -4.4854684,
    54.1601359
   ],
   [
    -4.4855905,
    54.1600428
   ],
   [
    -4.4856672,
    54.1599343
   ],
   [
    -4.4857439,
    54.1598259
   ],
   [
    -4.4858206,
    54.1597174
   ],
   [
    -4.4858973,
    54.159609
   ],
   [
    -4.485974,
    54.1595005
   ],
   [
    -4.4860507,
    54.1593921
   ],
   [
    -4.4860769,
    54.1592757
   ],
   [
    -4.486103,
    54.1591593
   ],
   [
    -4.4861292,
    54.1590429
   ],
   [
    -4.4861553,
    54.1589266
   ],
   [
    -4.4861815,
    54.1588102
   ],
   [
    -4.4862076,
    54.1586938
   ],
   [
    -4.4861815,
    54.1585774
   ],
   [
    -4.4861553,
    54.158461
   ],
   [
    -4.4861291,
    54.1583447
   ],
   [
    -4.4861029,
    54.1582283
   ],
   [
    -4.4860767,
    54.1581119
   ],
   [
    -4.4860506,
    54.1579955
   ],
   [
    -4.4859738,
    54.1578871
   ],
   [
    -4.4858971,
    54.1577786
   ],
   [
    -4.4858204,
    54.1576702
   ],
   [
    -4.4857437,
    54.1575617
   ],
   [
    -4.4856669,
    54.1574533
   ],
   [
    -4.4855902,
    54.1573448
   ],
   [
    -4.4854682,
    54.1572517
   ],
   [
    -4.4853461,
    54.1571586
   ],
   [
    -4.4852241,
    54.1570654
   ],
   [
    -4.485102,
    54.1569723
   ],
   [
    -4.48498,
    54.1568793
   ],
   [
    -4.4848579,
    54.1567861
   ],
   [
    -4.4846989,
    54.1567147
   ],
   [
    -4.4845399,
    54.1566432
   ],
   [
    -4.4843808,
    54.1565718
   ],
   [
    -4.4842218,
    54.1565003
   ],
   [
    -4.4840627,
    54.1564288
   ],
   [
    -4.4839037,
    54.1563574
   ],
   [
    -4.4837185,
    54.1563125
   ],
   [
    -4.4835333,
    54.1562675
   ],
   [
    -4.4833481,
    54.1562226
   ],
   [
    -4.4831629,
    54.1561777
   ],
   [
    -4.4829777,
    54.1561328
   ],
   [
    -4.4827925,
    54.1560879
   ],
   [
    -4.4825937,
    54.1560725
   ],
   [
    -4.482395,
    54.1560572
   ],
   [
    -4.4821962,
    54.1560419
   ],
   [
    -4.4819975,
    54.1560266
   ],
   [
    -4.4817987,
    54.1560113
   ],
   [
    -4.4816,
    54.1559959
   ],
   [
    -4.4816,
    54.1559959
   ],
   [
    -4.4816,
    54.155888
   ],
   [
    -4.4816,
    54.1557801
   ],
   [
    -4.4816,
    54.1556722
   ],
   [
    -4.4816,
    54.1555643
   ],
   [
    -4.4816,
    54.1554563
   ],
   [
    -4.4816,
    54.1553484
   ],
   [
    -4.4816,
    54.1552405
   ],
   [
    -4.4816,
    54.1551326
   ],
   [
    -4.4816,
    54.1550247
   ],
   [
    -4.4816,
    54.1549167
   ],
   [
    -4.4816,
    54.1548088
   ],
   [
    -4.4816,
    54.1547009
   ],
   [
    -4.4816,
    54.154593
   ],
   [
    -4.4816,
    54.1544851
   ],
   [
    -4.4816,
    54.1543772
   ],
   [
    -4.4816,
    54.1542692
   ],
   [
    -4.4816,
    54.1541613
   ],
   [
    -4.4816,
    54.1540534
   ],
   [
    -4.4816,
    54.1539455
   ],
   [
    -4.4816,
    54.1538376
   ],
   [
    -4.4816,
    54.1537296
   ],
   [
    -4.4816,
    54.1536217
   ],
   [
    -4.4816,
    54.1535138
   ],
   [
    -4.4816,
    54.1534059
   ],
   [
    -4.4816,
    54.153298
   ],
   [
    -4.4816,
    54.15319
   ],
   [
    -4.4816,
    54.1530821
   ],
   [
    -4.4816,
    54.1529742
   ],
   [
    -4.4816,
    54.1528663
   ],
   [
    -4.4816,
    54.1527584
   ],
   [
    -4.4816,
    54.1526505
   ],
   [
    -4.4816,
    54.1525425
   ],
   [
    -4.4816,
    54.1524346
   ],
   [
    -4.4816,
    54.1523267
   ],
   [
    -4.4816,
    54.1522188
   ],
   [
    -4.4816,
    54.1521109
   ],
   [
    -4.4816,
    54.1520029
   ],
   [
    -4.4816,
    54.151895
   ],
   [
    -4.4816,
    54.1517871
   ],
   [
    -4.4816,
    54.1516792
   ],
   [
    -4.4816,
    54.1515713
   ],
   [
    -4.4816,
    54.1514633
   ],
   [
    -4.4816,
    54.1513554
   ],
   [
    -4.4816,
    54.1512475
   ],
   [
    -4.4816,
    54.1511396
   ],
   [
    -4.4816,
    54.1510317
   ],
   [
    -4.4816,
    54.1509238
   ],
   [
    -4.4816,
    54.1508158
   ],
   [
    -4.4816,
    54.1507079
   ],
   [
    -4.4816,
    54.1506
   ]
  ]
 }
}