{
 "type": "Feature",
 "properties": {
  "note": "Crosses its own path once at a junction; no shared corridor.",
  "summary": {
   "distance": 3359.4,
   "duration": 2418.7
  },
  "segments": [
   {
    "distance": 1007.8
   },
   {
    "distance": 839.8
   },
   {
    "distance": 839.8
   },
   {
    "distance": 671.9
   }
  ],
  "maneuvers": [
   11,
   1,
   1,
   1,
   10
  ]
 },
 "geometry": {
  "type": "LineString",
  "coordinates": [
   [
    -4.4816,
    54.1506
   ],
   [
    -4.4814502,
    54.1506658
   ],
   [
    -4.4813004,
    54.1507316
   ],
   [
    -4.4811506,
    54.1507974
   ],
   [
    -4.4810007,
    54.1508632
   ],
   [
    -4.4808509,
    54.150929
   ],
   [
    -4.4807011,
    54.1509948
   ],
   [
    -4.4805513,
    54.1510606
   ],
   [
    -4.4804015,
    54.1511264
   ],
   [
    -4.4802517,
    54.1511922
   ],
   [
    -4.4801019,
    54.151258
   ],
   [
    -4.479952,
    54.1513238
   ],
   [
    -4.4798022,
    54.1513896
   ],
   [
    -4.4796524,
    54.1514555
   ],
   [
    -4.4795026,
    54.1515213
   ],
   [
    -4.4793528,
    54.1515871
   ],
   [
    -4.4792029,
    54.1516529
   ],
   [
    -4.4790531,
    54.1517187
   ],
   [
    -4.4789033,
    54.1517845
   ],
   [
    -4.4787535,
    54.1518503
   ],
   [
    -4.4786037,
    54.1519161
   ],
   [
    -4.4784538,
    54.1519819
   ],
   [
    -4.478304,
    54.1520477
   ],
   [
    -4.4781542,
    54.1521135
   ],
   [
    -4.4780044,
    54.1521792
   ],
   [
    -4.4778545,
    54.152245
   ],
   [
    -4.4777047,
    54.1523108
   ],
   [
    -4.4775549,
    54.1523766
   ],
   [
    -4.4774051,
    54.1524424
   ],
   [
    -4.4772552,
    54.1525082
   ],
   [
    -4.4771054,
    54.152574
   ],
   [
    -4.4769556,
    54.1526398
   ],
   [
    -4.4768058,
    54.1527056
   ],
   [
    -4.4766559,
    54.1527714
   ],
   [
    -4.4765061,
    54.1528372
   ],
   [
    -4.4763563,
    54.152903
   ],
   [
    -4.4762064,
    54.1529688
   ],
   [
    -4.4760566,
    54.1530346
   ],
   [
    -4.4759068,
    54.1531005
   ],
   [
    -4.475757,
    54.1531663
   ],
   [
    -4.4756071,
    54.1532321
   ],
   [
    -4.4754573,
    54.1532978
   ],
   [
    -4.4756434,
    54.1532979
   ],
   [
    -4.4758296,
    54.1532979
   ],
   [
    -4.4760157,
    54.1532979
   ],
   [
    -4.4762019,
    54.1532979
   ],
   [
    -4.476388,
    54.1532979
   ],
   [
    -4.4765741,
    54.1532979
   ],
   [
    -4.4767603,
    54.1532979
   ],
   [
    -4.4769464,
    54.1532979
   ],
   [
    -4.4771326,
    54.1532979
   ],
   [
    -4.4773187,
    54.1532979
   ],
   [
    -4.4775049,
    54.1532979
   ],
   [
    -4.477691,
    54.1532979
   ],
   [
    -4.4778771,
    54.1532979
   ],
   [
    -4.4780633,
    54.1532979
   ],
   [
    -4.4782494,
    54.153298
   ],
   [
    -4.4784356,
    54.153298
   ],
   [
    -4.4786217,
    54.153298
   ],
   [
    -4.4788079,
    54.153298
   ],
   [
    -4.478994,
    54.153298
   ],
   [
    -4.4791801,
    54.153298
   ],
   [
    -4.4793663,
    54.153298
   ],
   [
    -4.4795524,
    54.153298
   ],
   [
    -4.4797386,
    54.153298
   ],
   [
    -4.4799247,
    54.153298
   ],
   [
    -4.4801109,
    54.153298
   ],
   [
    -4.480297,
    54.153298
   ],
   [
    -4.4804831,
    54.153298
   ],
   [
    -4.4806693,
    54.153298
   ],
   [
    -4.4808554,
    54.153298
   ],
   [
    -4.4810416,
    54.153298
   ],
   [
    -4.4812277,
    54.153298
   ],
   [
    -4.4814139,
    54.153298
   ],
   [
    -4.4816,
    54.153298
   ],
   [
    -4.4817861,
    54.153298
   ],
   [
    -4.4819723,
    54.153298
   ],
   [
    -4.4821584,
    54.153298
   ],
   [
    -4.4823446,
    54.153298
   ],
   [
    -4.4825307,
    54.153298
   ],
   [
    -4.4827169,
    54.153298
   ],
   [
    -4.482903,
    54.153298
   ],
   [
    -4.4830891,
    54.153298
   ],
   [
    -4.4832753,
    54.153298
   ],
   [
    -4.4834614,
    54.153298
   ],
   [
    -4.4836476,
    54.153298
   ],
   [
    -4.4838337,
    54.153298
   ],
   [
    -4.4840199,
    54.153298
   ],
   [
    -4.484206,
    54.153298
   ],
   [
    -4.4843921,
    54.153298
   ],
   [
    -4.4845783,
    54.153298
   ],
   [
    -4.4847644,
    54.153298
   ],
   [
    -4.4849506,
    54.153298
   ],
   [
    -4.4851367,
    54.1532979
   ],
   [
    -4.4853229,
    54.1532979
   ],
   [
    -4.485509,
    54.1532979
   ],
   [
    -4.4856951,
    54.1532979
   ],
   [
    -4.4858813,
    54.1532979
   ],
   [
    -4.4860674,
    54.1532979
   ],
   [
    -4.4862536,
    54.1532979
   ],
   [
    -4.4864397,
    54.1532979
   ],
   [
    -4.4866259,
    54.1532979
   ],
   [
    -4.486812,
    54.1532979
   ],
   [
    -4.4869981,
    54.1532979
   ],
   [
    -4.4871843,
    54.1532979
   ],
   [
    -4.4873704,
    54.1532979
   ],
   [
    -4.4875566,
    54.1532979
   ],
   [
    -4.4877427,
    54.1532978
   ],
   [
    -4.4875929,
    54.1533637
   ],
   [
    -4.4874431,
    54.1534295
   ],
   [
    -4.4872933,
    54.1534953
   ],
   [
    -4.4871435,
    54.1535611
   ],
   [
    -4.4869936,
    54.1536269
   ],
   [
    -4.4868438,
    54.1536927
   ],
   [
    -4.486694,
    54.1537585
   ],
   [
    -4.4865442,
    54.1538243
   ],
   [
    -4.4863944,
    54.1538901
   ],
   [
    -4.4862446,
    54.1539559
   ],
   [
    -4.4860947,
    54.1540217
   ],
   [
    -4.4859449,
    54.1540875
   ],
   [
    -4.4857951,
    54.1541533
   ],
   [
    -4.4856453,
    54.1542191
   ],
   [
    -4.4854955,
    54.1542849
   ],
   [
    -4.4853457,
    54.1543507
   ],
   [
    -4.4851958,
    54.1544165
   ],
   [
    -4.485046,
    54.1544824
   ],
   [
    -4.4848962,
    54.1545482
   ],
   [
    -4.4847464,
    54.154614
   ],
   [
    -4.4845965,
    54.1546798
   ],
   [
    -4.4844467,
    54.1547457
   ],
   [
    -4.4842969,
    54.1548115
   ],
   [
    -4.4841471,
    54.1548773
   ],
   [
    -4.4839973,
    54.1549431
   ],
   [
    -4.4838474,
    54.1550089
   ],
   [
    -4.4836976,
    54.1550747
   ],
   [
    -4.4835478,
    54.1551405
   ],
   [
    -4.4833979,
    54.1552063
   ],
   [
    -4.4832481,
    54.1552721
   ],
   [
    -4.4830983,
    54.1553379
   ],
   [
    -4.4829485,
    54.1554037
   ],
   [
    -4.4827986,
    54.1554695
   ],
   [
    -4.4826488,
    54.1555353
   ],
   [
    -4.482499,
    54.1556011
   ],
   [
    -4.4823492,
    54.1556669
   ],
   [
    -4.4821993,
    54.1557327
   ],
   [
    -4.4820495,
    54.1557985
   ],
   [
    -4.4818997,
    54.1558643
   ],
   [
    -4.4817498,
    54.1559301
   ],
   [
    -4.4816,
    54.1559959
   ],
   [
    -4.4814157,
    54.1560011
   ],
   [
    -4.4812314,
    54.1560062
   ],
   [
    -4.4810471,
    54.1560113
   ],
   [
    -4.4808628,
    54.1560165
   ],
   [
    -4.4806785,
    54.1560216
   ],
   [
    -4.4804942,
    54.1560268
   ],
   [
    -4.4803099,
    54.1560319
   ],
   [
    -4.4801257,
    54.156037
   ],
   [
    -4.4799414,
    54.1560422
   ],
   [
    -4.4797571,
    54.1560473
   ],
   [
    -4.4795728,
    54.1560525
   ],
   [
    -4.4793885,
    54.1560576
   ],
   [
    -4.4792042,
    54.1560627
   ],
   [
    -4.4790199,
    54.1560679
   ],
   [
    -4.4788356,
    54.156073
   ],
   [
    -4.4786513,
    54.1560782
   ],
   [
    -4.478467,
    54.1560833
   ],
   [
    -4.4782827,
    54.1560884
   ],
   [
    -4.4780984,
    54.1560935
   ],
   [
    -4.4779141,
    54.1560986
   ],
   [
    -4.4777298,
    54.1561037
   ],
   [
    -4.4775455,
    54.1561089
   ],
   [
    -4.4773612,
    54.156114
   ],
   [
    -4.4771769,
    54.1561192
   ],
   [
    -4.4769927,
    54.1561243
   ],
   [
    -4.4768084,
    54.1561294
   ],
   [
    -4.4766241,
    54.1561346
   ],
   [
    -4.4764398,
    54.1561397
   ],
   [
    -4.4762555,
    54.1561449
   ],
   [
    -4.4760712,
    54.15615
   ],
   [
    -4.4758869,
    54.1561551
   ],
   [
    -4.4757026,
    54.1561603
   ],
   [
    -4.4755183,
    54.1561653
   ],
   [
    -4.475334,
    54.1561705
   ],
   [
    -4.4751497,
    54.1561756
   ],
   [
    -4.4750756,
    54.1560764
   ],
   [
    -4.4750015,
    54.1559771
   ],
   [
    -4.4749273,
    54.1558779
   ],
   [
    -4.4748532,
    54.1557787
   ],
   [
    -4.4747791,
    54.1556794
   ],
   [
    -4.474705,
    54.1555802
   ],
   [
    -4.4746308,
    54.1554809
   ],
   [
    -4.4745567,
    54.1553817
   ],
   [
    -4.4744826,
    54.1552825
   ],
   [
    -4.4744085,
    54.1551832
   ],
   [
    -4.4743343,
    54.155084
   ],
   [
    -4.4742602,
    54.1549848
   ],
   [
    -4.4741861,
    54.1548855
   ],
   [
    -4.474112,
    54.1547863
   ],
   [
    -4.4740379,
    54.1546871
   ],
   [
    -4.4739637,
    54.1545878
   ],
   [
    -4.4738896,
    54.1544886
   ],
   [
    -4.4738155,
    54.1543893
   ],
   [
    -4.4737414,
    54.15429
   ],
   [
    -4.4736673,
    54.1541908
   ],
   [
    -4.4735931,
    54.1540915
   ],
   [
    -4.473519,
    54.1539923
   ],
   [
    -4.4734449,
    54.1538931
   ],
   [
    -4.4733708,
    54.1537938
   ],
   [
    -4.4732967,
    54.1536946
   ],
   [
    -4.4732226,
    54.1535954
   ],
   [
    -4.4731484,
    54.1534961
   ],
   [
    -4.4730743,
    54.1533969
   ],
   [
    -4.4730002,
    54.1532977
   ],
   [
    -4.4730719,
    54.1531957
   ],
   [
    -4.4731436,
    54.1530938
   ],
   [
    -4.4732153,
    54.1529919
   ],
   [
    -4.4732869,
    54.15289
   ],
   [
    -4.4733586,
    54.152788
   ],
   [
    -4.4734303,
    54.1526861
   ],
   [
    -4.473502,
    54.1525842
   ],
   [
    -4.4735737,
    54.1524823
   ],
   [
    -4.4736454,
    54.1523804
   ],
   [
    -4.473717,
    54.1522784
   ],
   [
    -4.4737887,
    54.1521765
   ],
   [
    -4.4738604,
    54.1520747
   ],
   [
    -4.4739321,
    54.1519728
   ],
   [
    -4.4740038,
    54.1518708
   ],
   [
    -4.4740755,
    54.1517689
   ],
   [
    -4.4741471,
    54.151667
   ],
   [
    -4.4742188,
    54.1515651
   ],
   [
    -4.4742905,
    54.1514631
   ],
   [
    -4.4743622,
    54.1513612
   ],
   [
    -4.4744339,
    54.1512593
   ],
   [
    -4.4745055,
    54.1511574
   ],
   [
    -4.4745772,
    54.1510555
   ],
   [
    -4.4746489,
    54.1509535
   ],
   [
    -4.4747206,
    54.1508516
   ],
   [
    -4.4747922,
    54.1507497
   ],
   [
    -4.4748639,
    54.1506478
   ],
   [
    -4.4749356,
    54.1505458
   ],
   [
    -4.4750073,
    54.1504439
   ],
   [
    -4.475079,
    54.150342
   ],
   [
    -4.4751506,
    54.1502401
   ],
   [
    -4.4753349,
    54.1502503
   ],
   [
    -4.4755192,
    54.1502606
   ],
   [
    -4.4757034,
    54.150271
   ],
   [
    -4.4758877,
    54.1502813
   ],
   [
    -4.476072,
    54.1502916
   ],
   [
    -4.4762562,
    54.1503018
   ],
   [
    -4.4764405,
    54.1503121
   ],
   [
    -4.4766248,
    54.1503224
   ],
   [
    -4.476809,
    54.1503327
   ],
   [
    -4.4769933,
    54.150343
   ],
   [
    -4.4771776,
    54.1503532
   ],
   [
    -4.4773618,
    54.1503635
   ],
   [
    -4.4775461,
    54.1503738
   ],
   [
    -4.4777304,
    54.1503841
   ],
   [
    -4.4779146,
    54.1503943
   ],
   [
    -4.4780989,
    54.1504046
   ],
   [
    -4.4782832,
    54.150415
   ],
   [
    -4.4784674,
    54.1504253
   ],
   [
    -4.4786517,
    54.1504356
   ],
   [
    -4.478836,
    54.1504458
   ],
   [
    -4.4790202,
    54.1504561
   ],
   [
    -4.4792045,
    54.1504664
   ],
   [
    -4.4793888,
    54.1504767
   ],
   [
    -4.479573,
    54.1504869
   ],
   [
    -4.4797573,
    54.1504972
   ],
   [
    -4.4799416,
    54.1505075
   ],
   [
    -4.4801258,
    54.1505178
   ],
   [
    -4.4803101,
    54.1505281
   ],
   [
    -4.4804944,
    54.1505383
   ],
   [
    -4.4806787,
    54.1505486
   ],
   [
    -4.4808629,
    54.1505589
   ],
   [
    -4.4810472,
    54.1505692
   ],
   [
    -4.4812315,
    54.1505794
   ],
   [
    -4.4814157,
    54.1505897
   ],
   [
    -4.4816,
    54.1506
   ]
  ]
 }
}